start=new Date('2022-08-29T00:00:00.000Z').valueOf();
sats=[{"CLASSIFICATION_TYPE":"U","OBJECT_NAME":"STARLINK-3821","RCS_SIZE":"LARGE","PERIOD":"95.438","SITE":"AFETR","DECAY_DATE":null,"EPOCH":"2022-08-28T22:00:00.999936","ARG_OF_PERICENTER":"49.8176","NORAD_CAT_ID":"52357","REV_AT_EPOCH":"130","OBJECT_ID":"2022-045AC","INCLINATION":"53.2191","LAUNCH_DATE":"2022-04-29","REF_FRAME":"TEME","TLE_LINE1":"1 52357U 22045AC  22240.91667824  .00035951  00000-0  22660-2 0  9999","APOAPSIS":"541.587","CENTER_NAME":"EARTH","MEAN_ANOMALY":"320.9108","RA_OF_ASC_NODE":"224.6438","BSTAR":"0.00226600000000","MEAN_ELEMENT_THEORY":"SGP4","MEAN_MOTION":"15.08829666","TIME_SYSTEM":"UTC","EPHEMERIS_TYPE":"0","PERIAPSIS":"537.967","FILE":"3550014","OBJECT_TYPE":"PAYLOAD","COUNTRY_CODE":"US","MEAN_MOTION_DDOT":"0.0000000000000","TLE_LINE2":"2 52357  53.2191 224.6438 0002617  49.8176 320.9108 15.08829666  1303","ELEMENT_SET_NO":"999","GP_ID":"211214825","ECCENTRICITY":"0.00026170","SEMIMAJOR_AXIS":"6917.912","MEAN_MOTION_DOT":"0.00035951"},{"CLASSIFICATION_TYPE":"U","OBJECT_NAME":"STARLINK-3837","PERIOD":"95.439","RCS_SIZE":"LARGE","SITE":"AFETR","DECAY_DATE":null,"ARG_OF_PERICENTER":"49.8015","EPOCH":"2022-08-28T22:00:00.999936","REV_AT_EPOCH":"130","NORAD_CAT_ID":"52358","OBJECT_ID":"2022-045AD","INCLINATION":"53.2177","LAUNCH_DATE":"2022-04-29","REF_FRAME":"TEME","TLE_LINE1":"1 52358U 22045AD  22240.91667824  .00032218  00000-0  20343-2 0  9999","APOAPSIS":"541.275","CENTER_NAME":"EARTH","MEAN_ANOMALY":"60.9389","MEAN_ELEMENT_THEORY":"SGP4","BSTAR":"0.00203430000000","RA_OF_ASC_NODE":"224.6288","EPHEMERIS_TYPE":"0","TIME_SYSTEM":"UTC","MEAN_MOTION":"15.08819001","FILE":"3550014","PERIAPSIS":"538.344","MEAN_MOTION_DDOT":"0.0000000000000","OBJECT_TYPE":"PAYLOAD","COUNTRY_CODE":"US","TLE_LINE2":"2 52358  53.2177 224.6288 0002119  49.8015  60.9389 15.08819001  1304","ELEMENT_SET_NO":"999","GP_ID":"211215117","ECCENTRICITY":"0.00021190","MEAN_MOTION_DOT":"0.00032218","SEMIMAJOR_AXIS":"6917.945"},{"GP_ID":"211214971","ECCENTRICITY":"0.00023580","SEMIMAJOR_AXIS":"6917.876","MEAN_MOTION_DOT":"0.00007319","OBJECT_TYPE":"PAYLOAD","COUNTRY_CODE":"US","MEAN_MOTION_DDOT":"0.0000000000000","TLE_LINE2":"2 52359  53.2181 224.6411 0002358  55.0596 335.7072 15.08841414  1301","ELEMENT_SET_NO":"999","RA_OF_ASC_NODE":"224.6411","MEAN_ELEMENT_THEORY":"SGP4","BSTAR":"0.00047744000000","MEAN_MOTION":"15.08841414","TIME_SYSTEM":"UTC","EPHEMERIS_TYPE":"0","PERIAPSIS":"538.110","FILE":"3550014","APOAPSIS":"541.372","TLE_LINE1":"1 52359U 22045AE  22240.91667824  .00007319  00000-0  47744-3 0  9999","CENTER_NAME":"EARTH","MEAN_ANOMALY":"335.7072","LAUNCH_DATE":"2022-04-29","REF_FRAME":"TEME","NORAD_CAT_ID":"52359","REV_AT_EPOCH":"130","OBJECT_ID":"2022-045AE","INCLINATION":"53.2181","RCS_SIZE":"LARGE","PERIOD":"95.437","SITE":"AFETR","DECAY_DATE":null,"EPOCH":"2022-08-28T22:00:00.999936","ARG_OF_PERICENTER":"55.0596","CLASSIFICATION_TYPE":"U","OBJECT_NAME":"STARLINK-3853"},{"ELEMENT_SET_NO":"999","TLE_LINE2":"2 52360  53.2164 214.6517 0002111  58.2903  87.4506 15.08834255  1302","COUNTRY_CODE":"US","OBJECT_TYPE":"PAYLOAD","MEAN_MOTION_DDOT":"0.0000000000000","SEMIMAJOR_AXIS":"6917.898","MEAN_MOTION_DOT":"0.00022126","ECCENTRICITY":"0.00021110","GP_ID":"211215840","MEAN_ANOMALY":"87.4506","CENTER_NAME":"EARTH","TLE_LINE1":"1 52360U 22045AF  22240.91667824  .00022126  00000-0  14041-2 0  9997","APOAPSIS":"541.223","FILE":"3550014","PERIAPSIS":"538.303","MEAN_MOTION":"15.08834255","TIME_SYSTEM":"UTC","EPHEMERIS_TYPE":"0","RA_OF_ASC_NODE":"214.6517","MEAN_ELEMENT_THEORY":"SGP4","BSTAR":"0.00140410000000","INCLINATION":"53.2164","OBJECT_ID":"2022-045AF","NORAD_CAT_ID":"52360","REV_AT_EPOCH":"130","REF_FRAME":"TEME","LAUNCH_DATE":"2022-04-29","OBJECT_NAME":"STARLINK-3824","CLASSIFICATION_TYPE":"U","EPOCH":"2022-08-28T22:00:00.999936","ARG_OF_PERICENTER":"58.2903","DECAY_DATE":null,"SITE":"AFETR","RCS_SIZE":"LARGE","PERIOD":"95.438"},{"PERIAPSIS":"537.917","FILE":"3550014","MEAN_ELEMENT_THEORY":"SGP4","BSTAR":"0.00215530000000","RA_OF_ASC_NODE":"224.6356","TIME_SYSTEM":"UTC","EPHEMERIS_TYPE":"0","MEAN_MOTION":"15.08825616","MEAN_ANOMALY":"22.4478","TLE_LINE1":"1 52361U 22045AG  22240.91667824  .00034168  00000-0  21553-2 0  9993","APOAPSIS":"541.661","CENTER_NAME":"EARTH","ECCENTRICITY":"0.00027060","MEAN_MOTION_DOT":"0.00034168","SEMIMAJOR_AXIS":"6917.924","GP_ID":"211215244","ELEMENT_SET_NO":"999","MEAN_MOTION_DDOT":"0.0000000000000","COUNTRY_CODE":"US","OBJECT_TYPE":"PAYLOAD","TLE_LINE2":"2 52361  53.2166 224.6356 0002706  48.2808  22.4478 15.08825616  1308","DECAY_DATE":null,"ARG_OF_PERICENTER":"48.2808","EPOCH":"2022-08-28T22:00:00.999936","PERIOD":"95.438","RCS_SIZE":"LARGE","SITE":"AFETR","CLASSIFICATION_TYPE":"U","OBJECT_NAME":"STARLINK-3728","REF_FRAME":"TEME","LAUNCH_DATE":"2022-04-29","OBJECT_ID":"2022-045AG","INCLINATION":"53.2166","REV_AT_EPOCH":"130","NORAD_CAT_ID":"52361"},{"TLE_LINE1":"1 52362U 22045AH  22240.91667824  .00021961  00000-0  13942-2 0  9994","APOAPSIS":"541.432","CENTER_NAME":"EARTH","MEAN_ANOMALY":"116.5402","RA_OF_ASC_NODE":"214.6495","MEAN_ELEMENT_THEORY":"SGP4","BSTAR":"0.00139420000000","MEAN_MOTION":"15.08824187","TIME_SYSTEM":"UTC","EPHEMERIS_TYPE":"0","FILE":"3550014","PERIAPSIS":"538.156","OBJECT_TYPE":"PAYLOAD","COUNTRY_CODE":"US","MEAN_MOTION_DDOT":"0.0000000000000","TLE_LINE2":"2 52362  53.2158 214.6495 0002368  49.2323 116.5402 15.08824187  1304","ELEMENT_SET_NO":"999","GP_ID":"211215534","ECCENTRICITY":"0.00023680","SEMIMAJOR_AXIS":"6917.929","MEAN_MOTION_DOT":"0.00021961","CLASSIFICATION_TYPE":"U","OBJECT_NAME":"STARLINK-3848","RCS_SIZE":"LARGE","PERIOD":"95.439","SITE":"AFETR","DECAY_DATE":null,"EPOCH":"2022-08-28T22:00:00.999936","ARG_OF_PERICENTER":"49.2323","NORAD_CAT_ID":"52362","REV_AT_EPOCH":"130","OBJECT_ID":"2022-045AH","INCLINATION":"53.2158","LAUNCH_DATE":"2022-04-29","REF_FRAME":"TEME"},{"MEAN_ANOMALY":"34.9778","APOAPSIS":"541.287","TLE_LINE1":"1 52363U 22045AJ  22240.91667824  .00002917  00000-0  20119-3 0  9990","CENTER_NAME":"EARTH","FILE":"3550014","PERIAPSIS":"538.099","MEAN_ELEMENT_THEORY":"SGP4","BSTAR":"0.00020119000000","RA_OF_ASC_NODE":"224.6300","TIME_SYSTEM":"UTC","EPHEMERIS_TYPE":"0","MEAN_MOTION":"15.08857238","ELEMENT_SET_NO":"999","MEAN_MOTION_DDOT":"0.0000000000000","COUNTRY_CODE":"US","OBJECT_TYPE":"PAYLOAD","TLE_LINE2":"2 52363  53.2169 224.6300 0002304  55.7047  34.9778 15.08857238  1300","ECCENTRICITY":"0.00023040","MEAN_MOTION_DOT":"0.00002917","SEMIMAJOR_AXIS":"6917.828","GP_ID":"211215389","CLASSIFICATION_TYPE":"U","OBJECT_NAME":"STARLINK-3830","DECAY_DATE":null,"ARG_OF_PERICENTER":"55.7047","EPOCH":"2022-08-28T22:00:00.999936","PERIOD":"95.436","RCS_SIZE":"LARGE","SITE":"AFETR","OBJECT_ID":"2022-045AJ","INCLINATION":"53.2169","REV_AT_EPOCH":"130","NORAD_CAT_ID":"52363","REF_FRAME":"TEME","LAUNCH_DATE":"2022-04-29"},{"OBJECT_ID":"2022-045AK","INCLINATION":"53.2143","NORAD_CAT_ID":"52364","REV_AT_EPOCH":"130","REF_FRAME":"TEME","LAUNCH_DATE":"2022-04-29","CLASSIFICATION_TYPE":"U","OBJECT_NAME":"STARLINK-3820","DECAY_DATE":null,"EPOCH":"2022-08-28T22:00:00.999936","ARG_OF_PERICENTER":"49.8755","RCS_SIZE":"LARGE","PERIOD":"95.438","SITE":"AFETR","ELEMENT_SET_NO":"999","OBJECT_TYPE":"PAYLOAD","COUNTRY_CODE":"US","MEAN_MOTION_DDOT":"0.0000000000000","TLE_LINE2":"2 52364  53.2143 214.6440 0002306  49.8755 150.6787 15.08837917  1307","ECCENTRICITY":"0.00023060","SEMIMAJOR_AXIS":"6917.887","MEAN_MOTION_DOT":"0.00022451","GP_ID":"211215677","MEAN_ANOMALY":"150.6787","TLE_LINE1":"1 52364U 22045AK  22240.91667824  .00022451  00000-0  14243-2 0  9996","APOAPSIS":"541.347","CENTER_NAME":"EARTH","FILE":"3550014","PERIAPSIS":"538.156","RA_OF_ASC_NODE":"214.6440","BSTAR":"0.00142430000000","MEAN_ELEMENT_THEORY":"SGP4","MEAN_MOTION":"15.08837917","EPHEMERIS_TYPE":"0","TIME_SYSTEM":"UTC"},{"REV_AT_EPOCH":"130","NORAD_CAT_ID":"52365","OBJECT_ID":"2022-045AL","INCLINATION":"53.2144","LAUNCH_DATE":"2022-04-29","REF_FRAME":"TEME","CLASSIFICATION_TYPE":"U","OBJECT_NAME":"STARLINK-3874","PERIOD":"95.438","RCS_SIZE":"LARGE","SITE":"AFETR","DECAY_DATE":null,"ARG_OF_PERICENTER":"55.8938","EPOCH":"2022-08-28T22:00:00.999936","MEAN_MOTION_DDOT":"0.0000000000000","COUNTRY_CODE":"US","OBJECT_TYPE":"PAYLOAD","TLE_LINE2":"2 52365  53.2144 214.6444 0002172  55.8938  69.7983 15.08836628  1300","ELEMENT_SET_NO":"999","GP_ID":"211214826","ECCENTRICITY":"0.00021720","MEAN_MOTION_DOT":"0.00023143","SEMIMAJOR_AXIS":"6917.891","TLE_LINE1":"1 52365U 22045AL  22240.91667824  .00023143  00000-0  14675-2 0  9995","APOAPSIS":"541.258","CENTER_NAME":"EARTH","MEAN_ANOMALY":"69.7983","BSTAR":"0.00146750000000","MEAN_ELEMENT_THEORY":"SGP4","RA_OF_ASC_NODE":"214.6444","TIME_SYSTEM":"UTC","EPHEMERIS_TYPE":"0","MEAN_MOTION":"15.08836628","FILE":"3550014","PERIAPSIS":"538.253"},{"ARG_OF_PERICENTER":"51.6665","EPOCH":"2022-08-28T22:00:00.999936","DECAY_DATE":null,"SITE":"AFETR","PERIOD":"95.436","RCS_SIZE":"LARGE","OBJECT_NAME":"STARLINK-3808","CLASSIFICATION_TYPE":"U","REF_FRAME":"TEME","LAUNCH_DATE":"2022-04-29","INCLINATION":"53.2151","OBJECT_ID":"2022-045AM","REV_AT_EPOCH":"130","NORAD_CAT_ID":"52366","FILE":"3550014","PERIAPSIS":"537.994","EPHEMERIS_TYPE":"0","TIME_SYSTEM":"UTC","MEAN_MOTION":"15.08858123","MEAN_ELEMENT_THEORY":"SGP4","BSTAR":"0.00014164000000","RA_OF_ASC_NODE":"214.6420","MEAN_ANOMALY":"174.0432","CENTER_NAME":"EARTH","APOAPSIS":"541.386","TLE_LINE1":"1 52366U 22045AM  22240.91667824  .00001968  00000-0  14164-3 0  9991","MEAN_MOTION_DOT":"0.00001968","SEMIMAJOR_AXIS":"6917.825","ECCENTRICITY":"0.00024510","GP_ID":"211215118","ELEMENT_SET_NO":"999","TLE_LINE2":"2 52366  53.2151 214.6420 0002451  51.6665 174.0432 15.08858123  1307","MEAN_MOTION_DDOT":"0.0000000000000","OBJECT_TYPE":"PAYLOAD","COUNTRY_CODE":"US"}];
